[
    {
        "Altitude(m)": 553593.2307201728,
        "Argument of Periapsis(deg)": 0.006622991110713501,
        "Eccentricity": 0.0,
        "Inclination(deg)": 53.0,
        "Latitude(deg)": 16.505957385749326,
        "Longitude(deg)": 176.39612600705354,
        "Mean Anomaly(deg)": 159.1824928675775,
        "RAAN(deg)": 109.99014336852801,
        "Satellite Name": "Starlink Shell 1 493",
        "Satellite Number": 493,
        "Semi-Major Axis(m)": 6931778.249405717,
        "Time(s)": 190
    },
    {
        "Altitude(m)": 553571.0564607326,
        "Argument of Periapsis(deg)": 0.0069715695902247375,
        "Eccentricity": 0.0,
        "Inclination(deg)": 53.0,
        "Latitude(deg)": 16.01439975394858,
        "Longitude(deg)": 176.76346004583385,
        "Mean Anomaly(deg)": 159.8093240711343,
        "RAAN(deg)": 109.98962459845053,
        "Satellite Name": "Starlink Shell 1 493",
        "Satellite Number": 493,
        "Semi-Major Axis(m)": 6931778.249405717,
        "Time(s)": 200
    },
    {
        "Altitude(m)": 553551.2620817006,
        "Argument of Periapsis(deg)": 0.007320148069735974,
        "Eccentricity": 0.0,
        "Inclination(deg)": 53.0,
        "Latitude(deg)": 15.522049442554023,
        "Longitude(deg)": 177.12879662077125,
        "Mean Anomaly(deg)": 160.43615527469103,
        "RAAN(deg)": 109.98910582837308,
        "Satellite Name": "Starlink Shell 1 493",
        "Satellite Number": 493,
        "Semi-Major Axis(m)": 6931778.249405717,
        "Time(s)": 210
    },
    {
        "Altitude(m)": 553533.8794513582,
        "Argument of Periapsis(deg)": 0.007668726549247212,
        "Eccentricity": 0.0,
        "Inclination(deg)": 53.0,
        "Latitude(deg)": 15.028935748125921,
        "Longitude(deg)": 177.49220624067266,
        "Mean Anomaly(deg)": 161.0629864782477,
        "RAAN(deg)": 109.98858705829561,
        "Satellite Name": "Starlink Shell 1 493",
        "Satellite Number": 493,
        "Semi-Major Axis(m)": 6931778.249405717,
        "Time(s)": 220
    },
    {
        "Altitude(m)": 553518.9393594058,
        "Argument of Periapsis(deg)": 0.00801730502875845,
        "Eccentricity": 0.0,
        "Inclination(deg)": 53.0,
        "Latitude(deg)": 14.535087542689435,
        "Longitude(deg)": 177.85375859811165,
        "Mean Anomaly(deg)": 161.68981768180444,
        "RAAN(deg)": 109.98806828821813,
        "Satellite Name": "Starlink Shell 1 493",
        "Satellite Number": 493,
        "Semi-Major Axis(m)": 6931778.249405717,
        "Time(s)": 230
    },
    {
        "Altitude(m)": 553506.4714990117,
        "Argument of Periapsis(deg)": 0.008365883508269684,
        "Eccentricity": 0.0,
        "Inclination(deg)": 53.0,
        "Latitude(deg)": 14.040533290917718,
        "Longitude(deg)": 178.21352310065845,
        "Mean Anomaly(deg)": 162.31664888536113,
        "RAAN(deg)": 109.98754951814065,
        "Satellite Name": "Starlink Shell 1 493",
        "Satellite Number": 493,
        "Semi-Major Axis(m)": 6931778.249405717,
        "Time(s)": 240
    },
    {
        "Altitude(m)": 553496.504449387,
        "Argument of Periapsis(deg)": 0.008714461987780921,
        "Eccentricity": 0.0,
        "Inclination(deg)": 53.0,
        "Latitude(deg)": 13.545301066955739,
        "Longitude(deg)": 178.57156788927512,
        "Mean Anomaly(deg)": 162.94348008891785,
        "RAAN(deg)": 109.98703074806318,
        "Satellite Name": "Starlink Shell 1 493",
        "Satellite Number": 493,
        "Semi-Major Axis(m)": 6931778.249405717,
        "Time(s)": 250
    },
    {
        "Altitude(m)": 553489.0656589046,
        "Argument of Periapsis(deg)": 0.009063040467292158,
        "Eccentricity": 0.0,
        "Inclination(deg)": 53.0,
        "Latitude(deg)": 13.049418570893662,
        "Longitude(deg)": 178.92796036959888,
        "Mean Anomaly(deg)": 163.57031129247457,
        "RAAN(deg)": 109.9865119779857,
        "Satellite Name": "Starlink Shell 1 493",
        "Satellite Number": 493,
        "Semi-Major Axis(m)": 6931778.249405717,
        "Time(s)": 260
    },
    {
        "Altitude(m)": 553484.1814287724,
        "Argument of Periapsis(deg)": 0.009411618946803396,
        "Eccentricity": 0.0,
        "Inclination(deg)": 53.0,
        "Latitude(deg)": 12.552913144904876,
        "Longitude(deg)": 179.2827677432195,
        "Mean Anomaly(deg)": 164.1971424960313,
        "RAAN(deg)": 109.98599320790825,
        "Satellite Name": "Starlink Shell 1 493",
        "Satellite Number": 493,
        "Semi-Major Axis(m)": 6931778.249405717,
        "Time(s)": 270
    },
    {
        "Altitude(m)": 553481.8768972512,
        "Argument of Periapsis(deg)": 0.009760197426314633,
        "Eccentricity": 0.0,
        "Inclination(deg)": 53.0,
        "Latitude(deg)": 12.055811789063185,
        "Longitude(deg)": 179.6360560260613,
        "Mean Anomaly(deg)": 164.82397369958804,
        "RAAN(deg)": 109.98547443783077,
        "Satellite Name": "Starlink Shell 1 493",
        "Satellite Number": 493,
        "Semi-Major Axis(m)": 6931778.249405717,
        "Time(s)": 280
    },
    {
        "Altitude(m)": 553482.1760244604,
        "Argument of Periapsis(deg)": 0.01010877590582587,
        "Eccentricity": 0.0,
        "Inclination(deg)": 53.0,
        "Latitude(deg)": 11.55814117684677,
        "Longitude(deg)": 179.98789057959956,
        "Mean Anomaly(deg)": 165.45080490314473,
        "RAAN(deg)": 109.98495566775328,
        "Satellite Name": "Starlink Shell 1 493",
        "Satellite Number": 493,
        "Semi-Major Axis(m)": 6931778.249405717,
        "Time(s)": 290
    },
    {
        "Altitude(m)": 553485.101577716,
        "Argument of Periapsis(deg)": 0.010457354385337106,
        "Eccentricity": 0.0,
        "Inclination(deg)": 53.0,
        "Latitude(deg)": 11.059927670344734,
        "Longitude(deg)": -179.66166335797374,
        "Mean Anomaly(deg)": 166.07763610670145,
        "RAAN(deg)": 109.98443689767582,
        "Satellite Name": "Starlink Shell 1 493",
        "Satellite Number": 493,
        "Semi-Major Axis(m)": 6931778.249405717,
        "Time(s)": 300
    },
    {
        "Altitude(m)": 553490.6751175083,
        "Argument of Periapsis(deg)": 0.010805932864848343,
        "Eccentricity": 0.0,
        "Inclination(deg)": 53.0,
        "Latitude(deg)": 10.561197335180402,
        "Longitude(deg)": -179.31254165352007,
        "Mean Anomaly(deg)": 166.70446731025817,
        "RAAN(deg)": 109.98391812759834,
        "Satellite Name": "Starlink Shell 1 493",
        "Satellite Number": 493,
        "Semi-Major Axis(m)": 6931778.249405717,
        "Time(s)": 310
    },
    {
        "Altitude(m)": 553498.9169840238,
        "Argument of Periapsis(deg)": 0.01115451134435958,
        "Eccentricity": 0.0,
        "Inclination(deg)": 53.0,
        "Latitude(deg)": 10.06197595515948,
        "Longitude(deg)": -178.9646807479223,
        "Mean Anomaly(deg)": 167.3312985138148,
        "RAAN(deg)": 109.98339935752087,
        "Satellite Name": "Starlink Shell 1 493",
        "Satellite Number": 493,
        "Semi-Major Axis(m)": 6931778.249405717,
        "Time(s)": 320
    },
    {
        "Altitude(m)": 553509.8462842888,
        "Argument of Periapsis(deg)": 0.011503089823870818,
        "Eccentricity": 0.0,
        "Inclination(deg)": 53.0,
        "Latitude(deg)": 9.562289046657686,
        "Longitude(deg)": -178.61801712513196,
        "Mean Anomaly(deg)": 167.95812971737158,
        "RAAN(deg)": 109.98288058744339,
        "Satellite Name": "Starlink Shell 1 493",
        "Satellite Number": 493,
        "Semi-Major Axis(m)": 6931778.249405717,
        "Time(s)": 330
    },
    {
        "Altitude(m)": 553523.4808799187,
        "Argument of Periapsis(deg)": 0.011851668303382053,
        "Eccentricity": 0.0,
        "Inclination(deg)": 53.0,
        "Latitude(deg)": 9.062161872763207,
        "Longitude(deg)": -178.27248829417425,
        "Mean Anomaly(deg)": 168.58496092092827,
        "RAAN(deg)": 109.98236181736591,
        "Satellite Name": "Starlink Shell 1 493",
        "Satellite Number": 493,
        "Semi-Major Axis(m)": 6931778.249405717,
        "Time(s)": 340
    },
    {
        "Altitude(m)": 553539.8373754603,
        "Argument of Periapsis(deg)": 0.012200246782893292,
        "Eccentricity": 0.0,
        "Inclination(deg)": 53.0,
        "Latitude(deg)": 8.561619457180443,
        "Longitude(deg)": -177.9280322583683,
        "Mean Anomaly(deg)": 169.21179212448502,
        "RAAN(deg)": 109.98184304728845,
        "Satellite Name": "Starlink Shell 1 493",
        "Satellite Number": 493,
        "Semi-Major Axis(m)": 6931778.249405717,
        "Time(s)": 350
    },
    {
        "Altitude(m)": 553558.9311073913,
        "Argument of Periapsis(deg)": 0.012548825262404526,
        "Eccentricity": 0.0,
        "Inclination(deg)": 53.0,
        "Latitude(deg)": 8.060686597911102,
        "Longitude(deg)": -177.5845869846402,
        "Mean Anomaly(deg)": 169.83862332804176,
        "RAAN(deg)": 109.98132427721099,
        "Satellite Name": "Starlink Shell 1 493",
        "Satellite Number": 493,
        "Semi-Major Axis(m)": 6931778.249405717,
        "Time(s)": 360
    },
    {
        "Altitude(m)": 553580.7761336946,
        "Argument of Periapsis(deg)": 0.012897403741915765,
        "Eccentricity": 0.0,
        "Inclination(deg)": 53.0,
        "Latitude(deg)": 7.559387880726246,
        "Longitude(deg)": -177.24209138580318,
        "Mean Anomaly(deg)": 170.4654545315984,
        "RAAN(deg)": 109.98080550713351,
        "Satellite Name": "Starlink Shell 1 493",
        "Satellite Number": 493,
        "Semi-Major Axis(m)": 6931778.249405717,
        "Time(s)": 370
    }
]